[{"OBJECT_NAME":"STARLINK-1357","OBJECT_ID":"2020-025AL","EPOCH":"2026-03-09T21:47:01.769568","MEAN_MOTION":15.55581291,"ECCENTRICITY":0.00038057,"INCLINATION":53.0543,"RA_OF_ASC_NODE":36.9603,"ARG_OF_PERICENTER":97.6064,"MEAN_ANOMALY":262.5379,"EPHEMERIS_TYPE":0,"CLASSIFICATION_TYPE":"U","NORAD_CAT_ID":45565,"ELEMENT_SET_NO":999,"REV_AT_EPOCH":32609,"BSTAR":0.0018339084,"MEAN_MOTION_DOT":0.00129519,"MEAN_MOTION_DDOT":0},{"OBJECT_NAME":"STARLINK-1994","OBJECT_ID":"2021-009AT","EPOCH":"2026-03-09T22:00:01.999584","MEAN_MOTION":15.57110467,"ECCENTRICITY":0.00093127,"INCLINATION":53.0487,"RA_OF_ASC_NODE":1.062,"ARG_OF_PERICENTER":99.8955,"MEAN_ANOMALY":322.2331,"EPHEMERIS_TYPE":0,"CLASSIFICATION_TYPE":"U","NORAD_CAT_ID":47589,"ELEMENT_SET_NO":999,"REV_AT_EPOCH":581,"BSTAR":0.0016353171,"MEAN_MOTION_DOT":0.00122261,"MEAN_MOTION_DDOT":0}]
